NORAD_CAT_ID,OBJECT_NAME,OBJECT_TYPE,EPOCH,MEAN_MOTION,ECCENTRICITY,INCLINATION,RA_OF_ASC_NODE,ARG_OF_PERICENTER,MEAN_ANOMALY,BSTAR,MEAN_MOTION_DOT,MEAN_MOTION_DDOT,TLE_LINE0,TLE_LINE1,TLE_LINE2,SEMIMAJOR_AXIS,PERIOD,APOGEE,PERIGEE,DECAYED
55270.0,STARLINK-5301,PAYLOAD,2023-03-22 14:00:01,15.25646582,0.0003373,69.9994,256.2835,268.1814,87.4906,-0.047962,-0.01116662,0.0,0 STARLINK-5301,1 55270U 23010B   23081.58334491 -.01116662  00000-0 -47962-1 0  9990,2 55270  69.9994 256.2835 0003373 268.1814  87.4906 15.25646582 10205,6866.982,94.386,491.163,486.53,0.0
55270.0,STARLINK-5301,PAYLOAD,2023-03-22 22:00:00,15.24858228,0.0003271,69.9992,255.4073,275.79,109.631,-0.046415,-0.01060216,0.0,0 STARLINK-5301,1 55270U 23010B   23081.91667824 -.01060216  00000-0 -46415-1 0  9991,2 55270  69.9992 255.4073 0003271 275.7900 109.6310 15.24858228  1303,6869.348,94.435,493.46,488.966,0.0
55270.0,STARLINK-5301,PAYLOAD,2023-03-23 06:00:00,15.24058924,0.0003236,69.9994,254.5322,270.9133,143.3546,-0.044841,-0.01004628,0.0,0 STARLINK-5301,1 55270U 23010B   23082.25001157 -.01004628  00000-0 -44841-1 0  9996,2 55270  69.9994 254.5322 0003236 270.9133 143.3546 15.24058924 10310,6871.75,94.485,495.838,491.391,0.0
55270.0,STARLINK-5301,PAYLOAD,2023-03-23 14:00:01,15.23360421,0.0003329,69.9996,253.6583,271.7,170.5333,-0.051195,-0.01113196,0.0,0 STARLINK-5301,1 55270U 23010B   23082.58335648 -.01113196  00000-0 -51195-1 0  9998,2 55270  69.9996 253.6583 0003329 271.7000 170.5333 15.23360421  1308,6873.85,94.528,498.003,493.427,0.0
55270.0,STARLINK-5301,PAYLOAD,2023-03-24 18:00:00,15.20644788,0.0003291,69.9997,250.6072,274.8118,77.9037,-0.050651,-0.01024011,0.0,0 STARLINK-5301,1 55270U 23010B   23083.75001157 -.01024011  00000-0 -50651-1 0  9996,2 55270  69.9997 250.6072 0003291 274.8118  77.9037 15.20644788 10535,6882.032,94.697,506.161,501.632,0.0
55270.0,STARLINK-5301,PAYLOAD,2023-03-24 22:00:01,15.20291122,0.0003061,69.9997,250.1722,278.0585,266.7298,-0.053122,-0.01059657,0.0,0 STARLINK-5301,1 55270U 23010B   23083.91668981 -.01059657  00000-0 -53122-1 0  9998,2 55270  69.9997 250.1722 0003061 278.0585 266.7298 15.20291122  1303,6883.099,94.719,507.071,502.857,0.0
55270.0,STARLINK-5301,PAYLOAD,2023-03-25 06:00:00,15.19493958,0.0003051,69.9999,249.3033,271.7903,296.3026,-0.051026,-0.00999471,0.0,0 STARLINK-5301,1 55270U 23010B   23084.25001157 -.00999471  00000-0 -51026-1 0  9999,2 55270  69.9999 249.3033 0003051 271.7903 296.3026 15.19493958 10614,6885.506,94.768,509.472,505.27,0.0
55270.0,STARLINK-5301,PAYLOAD,2023-03-25 14:00:01,15.18783639,0.0003168,70.0001,248.4355,270.9382,319.5871,-0.057683,-0.01111869,0.0,0 STARLINK-5301,1 55270U 23010B   23084.58334491 -.01111869  00000-0 -57683-1 0  9998,2 55270  70.0001 248.4355 0003168 270.9382 319.5871 15.18783639 10667,6887.653,94.813,511.7,507.336,0.0
55270.0,STARLINK-5301,PAYLOAD,2023-03-26 00:00:00,15.1784116,0.0003244,69.9997,247.3519,273.0426,74.2469,-0.059693,-0.01119109,0.0,0 STARLINK-5301,1 55270U 23010B   23085.00001157 -.01119109  00000-0 -59693-1 0  9994,2 55270  69.9997 247.3519 0003244 273.0426  74.2469 15.17841160  1308,6890.503,94.872,514.604,510.133,0.0
55270.0,STARLINK-5301,PAYLOAD,2023-03-26 06:00:00,15.17212001,0.0003108,70.0001,246.7025,264.9626,7.7216,-0.054506,-0.00999418,0.0,0 STARLINK-5301,1 55270U 23010B   23085.25001157 -.00999418  00000-0 -54506-1 0  9997,2 55270  70.0001 246.7025 0003108 264.9626   7.7216 15.17212001 10769,6892.408,94.911,516.415,512.131,0.0
55270.0,STARLINK-5301,PAYLOAD,2023-03-26 14:00:01,15.16497529,0.000322,70.0002,245.8378,266.1052,26.2758,-0.061305,-0.01106765,0.0,0 STARLINK-5301,1 55270U 23010B   23085.58334491 -.01106765  00000-0 -61305-1 0  9994,2 55270  70.0002 245.8378 0003220 266.1052  26.2758 15.16497529 10815,6894.573,94.956,518.658,514.218,0.0
55270.0,STARLINK-5301,PAYLOAD,2023-03-27 00:00:00,15.15558719,0.0003199,69.9998,244.758,273.3948,132.3267,-0.063824,-0.0112064,0.0,0 STARLINK-5301,1 55270U 23010B   23086.00001157 -.01120640  00000-0 -63824-1 0  9998,2 55270  69.9998 244.7580 0003199 273.3948 132.3267 15.15558719  1304,6897.42,95.014,521.491,517.078,0.0
55270.0,STARLINK-5301,PAYLOAD,2023-03-27 06:00:00,15.14929398,0.0003188,70.0001,244.111,266.0839,62.9779,-0.058134,-0.00998712,0.0,0 STARLINK-5301,1 55270U 23010B   23086.25001157 -.00998712  00000-0 -58134-1 0  9995,2 55270  70.0001 244.1110 0003188 266.0839  62.9779 15.14929398 10918,6899.33,95.054,523.394,518.995,0.0
55270.0,STARLINK-5301,PAYLOAD,2023-03-27 14:00:01,15.14211953,0.0003287,70.0002,243.2493,268.3164,77.7058,-0.065159,-0.01102629,0.0,0 STARLINK-5301,1 55270U 23010B   23086.58334491 -.01102629  00000-0 -65159-1 0  9991,2 55270  70.0002 243.2493 0003287 268.3164  77.7058 15.14211953 10969,6901.509,95.099,525.643,521.106,0.0
55270.0,STARLINK-5301,PAYLOAD,2023-03-27 22:00:00,15.13449294,0.0003224,69.9999,242.3884,273.5977,88.4746,-0.065478,-0.01085748,0.0,0 STARLINK-5301,1 55270U 23010B   23086.91667824 -.01085748  00000-0 -65478-1 0  9993,2 55270  69.9999 242.3884 0003224 273.5977  88.4746 15.13449294  1307,6903.827,95.147,527.918,523.467,0.0
55270.0,STARLINK-5301,PAYLOAD,2023-03-28 08:00:01,15.12488732,0.0003141,70.0,241.3139,269.1523,201.7053,-0.065655,-0.01061549,0.0,0 STARLINK-5301,1 55270U 23010B   23087.33334491 -.01061549  00000-0 -65655-1 0  9991,2 55270  70.0000 241.3139 0003141 269.1523 201.7053 15.12488732 11087,6906.75,95.207,530.785,526.446,0.0
55270.0,STARLINK-5301,PAYLOAD,2023-03-28 14:00:01,15.11923933,0.0003237,70.0002,240.6699,270.4079,121.043,-0.069043,-0.01096119,0.0,0 STARLINK-5301,1 55270U 23010B   23087.58334491 -.01096119  00000-0 -69043-1 0  9994,2 55270  70.0002 240.6699 0003237 270.4079 121.0430 15.11923933  1302,6908.47,95.243,532.571,528.099,0.0
55270.0,STARLINK-5301,PAYLOAD,2023-03-28 22:00:00,15.11168433,0.0003184,69.9997,239.8121,275.6922,129.0676,-0.070031,-0.01089181,0.0,0 STARLINK-5301,1 55270U 23010B   23087.91667824 -.01089181  00000-0 -70031-1 0  9990,2 55270  69.9997 239.8121 0003184 275.6922 129.0676 15.11168433  1303,6910.772,95.291,534.838,530.437,0.0
55270.0,STARLINK-5301,PAYLOAD,2023-03-29 02:00:01,15.10782334,0.0002972,69.9997,239.3835,270.9855,320.0962,-0.071127,-0.01093997,0.0,0 STARLINK-5301,1 55270U 23010B   23088.08334491 -.01093997  00000-0 -71127-1 0  9997,2 55270  69.9997 239.3835 0002972 270.9855 320.0962 15.10782334 11197,6911.95,95.315,535.869,531.761,0.0
55270.0,STARLINK-5301,PAYLOAD,2023-03-29 14:00:01,15.09636019,0.0003257,70.0,238.0997,272.521,156.144,-0.072991,-0.0108815,0.0,0 STARLINK-5301,1 55270U 23010B   23088.58334491 -.01088150  00000-0 -72991-1 0  9997,2 55270  70.0000 238.0997 0003257 272.5210 156.1440 15.09636019  1307,6915.448,95.387,539.566,535.061,0.0
55270.0,STARLINK-5301,PAYLOAD,2023-03-29 22:00:00,15.08887875,0.0003149,69.9995,237.2449,277.398,161.8359,-0.074909,-0.0109353,0.0,0 STARLINK-5301,1 55270U 23010B   23088.91667824 -.01093530  00000-0 -74909-1 0  9992,2 55270  69.9995 237.2449 0003149 277.3980 161.8359 15.08887875  1306,6917.734,95.435,541.777,537.421,0.0
55270.0,STARLINK-5301,PAYLOAD,2023-03-30 08:00:01,15.07932715,0.0003028,69.9997,236.178,269.0211,272.1511,-0.075761,-0.0107855,0.0,0 STARLINK-5301,1 55270U 23010B   23089.33334491 -.01078550  00000-0 -75761-1 0  9992,2 55270  69.9997 236.1780 0003028 269.0211 272.1511 15.07932715 11383,6920.655,95.495,544.616,540.424,0.0
55270.0,STARLINK-5301,PAYLOAD,2023-03-31 00:00:00,15.06425082,0.0002898,69.9993,234.474,275.5931,281.7163,-0.082284,-0.01120805,0.0,0 STARLINK-5301,1 55270U 23010B   23090.00001157 -.01120805  00000-0 -82284-1 0  9997,2 55270  69.9993 234.4740 0002898 275.5931 281.7163 15.06425082  1304,6925.272,95.591,549.144,545.13,0.0
55270.0,STARLINK-5301,PAYLOAD,2023-03-31 08:00:01,15.0565278,0.0003006,69.9995,233.6236,268.9781,295.0308,-0.080981,-0.01083243,0.0,0 STARLINK-5301,1 55270U 23010B   23090.33334491 -.01083243  00000-0 -80981-1 0  9999,2 55270  69.9995 233.6236 0003006 268.9781 295.0308 15.05652780 11539,6927.64,95.64,551.587,547.422,0.0
55270.0,STARLINK-5301,PAYLOAD,2023-04-01 08:00:01,15.03371424,0.000304,69.9995,231.0779,262.9931,315.6394,-0.08638,-0.0108655,0.0,0 STARLINK-5301,1 55270U 23010B   23091.33334491 -.01086550  00000-0 -86380-1 0  9993,2 55270  69.9995 231.0779 0003040 262.9931 315.6394 15.03371424 11683,6934.646,95.785,558.619,554.403,0.0
55270.0,STARLINK-5301,PAYLOAD,2023-04-01 14:00:01,15.02774459,0.0003138,69.9996,230.4427,270.0245,220.9983,-0.086144,-0.01067959,0.0,0 STARLINK-5301,1 55270U 23010B   23091.58334491 -.01067959  00000-0 -86144-1 0  9990,2 55270  69.9996 230.4427 0003138 270.0245 220.9983 15.02774459  1307,6936.483,95.823,560.524,556.171,0.0
55270.0,STARLINK-5301,PAYLOAD,2023-04-02 00:00:00,15.01857472,0.0002961,69.9994,229.3856,269.0002,314.8223,-0.092941,-0.0112014,0.0,0 STARLINK-5301,1 55270U 23010B   23092.00001157 -.01120140  00000-0 -92941-1 0  9992,2 55270  69.9994 229.3856 0002961 269.0002 314.8223 15.01857472  1306,6939.306,95.881,563.226,559.116,0.0
55270.0,STARLINK-5301,PAYLOAD,2023-04-02 08:00:01,15.01093117,0.0003063,69.9996,228.5411,262.888,322.1529,-0.092444,-0.01093995,0.0,0 STARLINK-5301,1 55270U 23010B   23092.33334491 -.01093995  00000-0 -92444-1 0  9993,2 55270  69.9996 228.5411 0003063 262.8880 322.1529 15.01093117 11833,6941.661,95.93,565.653,561.4,0.0
55270.0,STARLINK-5301,PAYLOAD,2023-04-02 14:00:01,15.0048925,0.0003083,69.9999,227.9081,270.286,225.0941,-0.091155,-0.01064073,0.0,0 STARLINK-5301,1 55270U 23010B   23092.58334491 -.01064073  00000-0 -91155-1 0  9993,2 55270  69.9999 227.9081 0003083 270.2860 225.0941 15.00489250  1301,6943.524,95.969,567.529,563.248,0.0
55270.0,STARLINK-5301,PAYLOAD,2023-04-02 22:00:00,14.99599041,0.0002871,69.9997,227.0651,274.4687,220.5506,-0.054348,-0.00628696,0.0,0 STARLINK-5301,1 55270U 23010B   23092.91667824 -.00628696  00000-0 -54348-1 0  9998,2 55270  69.9997 227.0651 0002871 274.4687 220.5506 14.99599041 11923,6946.271,96.026,570.131,566.142,0.0
